{
  "type": "Feature",
  "properties": {
    "area_sq_meters": 145248.27,
    "area_hectares": 14.525,
    "area_sq_km": 0.1452,
    "outlet_lat": 21.257951,
    "outlet_lon": 81.300983
  },
  "geometry": {
    "type": "MultiPolygon",
    "coordinates": [
      [
        [
          [
            81.300619,
            21.259892
          ],
          [
            81.300671,
            21.259941
          ],
          [
            81.300775,
            21.259941
          ],
          [
            81.300879,
            21.259941
          ],
          [
            81.300983,
            21.259941
          ],
          [
            81.301087,
            21.259941
          ],
          [
            81.301191,
            21.259941
          ],
          [
            81.301295,
            21.259941
          ],
          [
            81.301348,
            21.259892
          ],
          [
            81.3014,
            21.259844
          ],
          [
            81.301504,
            21.259844
          ],
          [
            81.301608,
            21.259844
          ],
          [
            81.301712,
            21.259844
          ],
          [
            81.301764,
            21.259795
          ],
          [
            81.301816,
            21.259747
          ],
          [
            81.30192,
            21.259747
          ],
          [
            81.301972,
            21.259698
          ],
          [
            81.302024,
            21.25965
          ],
          [
            81.302129,
            21.25965
          ],
          [
            81.302181,
            21.259601
          ],
          [
            81.302233,
            21.259553
          ],
          [
            81.302285,
            21.259504
          ],
          [
            81.302337,
            21.259456
          ],
          [
            81.302389,
            21.259407
          ],
          [
            81.302441,
            21.259359
          ],
          [
            81.302493,
            21.25931
          ],
          [
            81.302545,
            21.259262
          ],
          [
            81.302597,
            21.259213
          ],
          [
            81.302649,
            21.259164
          ],
          [
            81.302701,
            21.259116
          ],
          [
            81.302753,
            21.259067
          ],
          [
            81.302806,
            21.259019
          ],
          [
            81.302806,
            21.258922
          ],
          [
            81.302858,
            21.258873
          ],
          [
            81.30291,
            21.258825
          ],
          [
            81.30291,
            21.258728
          ],
          [
            81.302962,
            21.258679
          ],
          [
            81.303014,
            21.258631
          ],
          [
            81.303014,
            21.258534
          ],
          [
            81.303014,
            21.258437
          ],
          [
            81.303014,
            21.258339
          ],
          [
            81.303066,
            21.258291
          ],
          [
            81.303118,
            21.258242
          ],
          [
            81.303118,
            21.258145
          ],
          [
            81.303118,
            21.258048
          ],
          [
            81.303118,
            21.257951
          ],
          [
            81.303118,
            21.257854
          ],
          [
            81.303118,
            21.257757
          ],
          [
            81.303118,
            21.25766
          ],
          [
            81.303066,
            21.257611
          ],
          [
            81.303014,
            21.257563
          ],
          [
            81.303014,
            21.257466
          ],
          [
            81.303014,
            21.257369
          ],
          [
            81.303014,
            21.257272
          ],
          [
            81.302962,
            21.257223
          ],
          [
            81.30291,
            21.257175
          ],
          [
            81.30291,
            21.257078
          ],
          [
            81.302858,
            21.257029
          ],
          [
            81.302806,
            21.256981
          ],
          [
            81.302806,
            21.256884
          ],
          [
            81.302753,
            21.256835
          ],
          [
            81.302701,
            21.256786
          ],
          [
            81.302649,
            21.256738
          ],
          [
            81.302597,
            21.256689
          ],
          [
            81.302545,
            21.256641
          ],
          [
            81.302493,
            21.256592
          ],
          [
            81.302441,
            21.256544
          ],
          [
            81.302389,
            21.256495
          ],
          [
            81.302337,
            21.256447
          ],
          [
            81.302285,
            21.256398
          ],
          [
            81.302233,
            21.25635
          ],
          [
            81.302181,
            21.256301
          ],
          [
            81.302129,
            21.256253
          ],
          [
            81.302024,
            21.256253
          ],
          [
            81.301972,
            21.256204
          ],
          [
            81.30192,
            21.256156
          ],
          [
            81.301816,
            21.256156
          ],
          [
            81.301764,
            21.256107
          ],
          [
            81.301712,
            21.256059
          ],
          [
            81.301608,
            21.256059
          ],
          [
            81.301504,
            21.256059
          ],
          [
            81.3014,
            21.256059
          ],
          [
            81.301348,
            21.25601
          ],
          [
            81.301295,
            21.255961
          ],
          [
            81.301191,
            21.255961
          ],
          [
            81.301087,
            21.255961
          ],
          [
            81.300983,
            21.255961
          ],
          [
            81.300879,
            21.255961
          ],
          [
            81.300775,
            21.255961
          ],
          [
            81.300671,
            21.255961
          ],
          [
            81.300619,
            21.25601
          ],
          [
            81.300566,
            21.256059
          ],
          [
            81.300514,
            21.256107
          ],
          [
            81.300462,
            21.256156
          ],
          [
            81.300358,
            21.256156
          ],
          [
            81.300254,
            21.256156
          ],
          [
            81.30015,
            21.256156
          ],
          [
            81.300046,
            21.256156
          ],
          [
            81.299994,
            21.256204
          ],
          [
            81.299942,
            21.256253
          ],
          [
            81.299837,
            21.256253
          ],
          [
            81.299785,
            21.256301
          ],
          [
            81.299733,
            21.25635
          ],
          [
            81.299681,
            21.256398
          ],
          [
            81.299629,
            21.256447
          ],
          [
            81.299577,
            21.256495
          ],
          [
            81.299525,
            21.256544
          ],
          [
            81.299473,
            21.256592
          ],
          [
            81.299421,
            21.256641
          ],
          [
            81.299369,
            21.256689
          ],
          [
            81.299317,
            21.256738
          ],
          [
            81.299265,
            21.256786
          ],
          [
            81.299213,
            21.256835
          ],
          [
            81.299161,
            21.256884
          ],
          [
            81.299161,
            21.256981
          ],
          [
            81.299109,
            21.257029
          ],
          [
            81.299056,
            21.257078
          ],
          [
            81.299056,
            21.257175
          ],
          [
            81.299004,
            21.257223
          ],
          [
            81.298952,
            21.257272
          ],
          [
            81.298952,
            21.257369
          ],
          [
            81.298952,
            21.257466
          ],
          [
            81.298952,
            21.257563
          ],
          [
            81.2989,
            21.257611
          ],
          [
            81.298848,
            21.25766
          ],
          [
            81.298848,
            21.257757
          ],
          [
            81.298848,
            21.257854
          ],
          [
            81.298848,
            21.257951
          ],
          [
            81.298848,
            21.258048
          ],
          [
            81.298848,
            21.258145
          ],
          [
            81.298848,
            21.258242
          ],
          [
            81.2989,
            21.258291
          ],
          [
            81.298952,
            21.258339
          ],
          [
            81.298952,
            21.258437
          ],
          [
            81.298952,
            21.258534
          ],
          [
            81.298952,
            21.258631
          ],
          [
            81.299004,
            21.258679
          ],
          [
            81.299056,
            21.258728
          ],
          [
            81.299056,
            21.258825
          ],
          [
            81.299109,
            21.258873
          ],
          [
            81.299161,
            21.258922
          ],
          [
            81.299161,
            21.259019
          ],
          [
            81.299213,
            21.259067
          ],
          [
            81.299265,
            21.259116
          ],
          [
            81.299317,
            21.259164
          ],
          [
            81.299369,
            21.259213
          ],
          [
            81.299421,
            21.259262
          ],
          [
            81.299473,
            21.25931
          ],
          [
            81.299525,
            21.259359
          ],
          [
            81.299577,
            21.259407
          ],
          [
            81.299629,
            21.259456
          ],
          [
            81.299681,
            21.259504
          ],
          [
            81.299733,
            21.259553
          ],
          [
            81.299785,
            21.259601
          ],
          [
            81.299837,
            21.25965
          ],
          [
            81.299942,
            21.25965
          ],
          [
            81.299994,
            21.259698
          ],
          [
            81.300046,
            21.259747
          ],
          [
            81.30015,
            21.259747
          ],
          [
            81.300202,
            21.259795
          ],
          [
            81.300254,
            21.259844
          ],
          [
            81.300358,
            21.259844
          ],
          [
            81.300462,
            21.259844
          ],
          [
            81.300566,
            21.259844
          ],
          [
            81.300619,
            21.259892
          ]
        ]
      ],
      [
        [
          [
            81.300671,
            21.259747
          ],
          [
            81.300619,
            21.259698
          ],
          [
            81.300566,
            21.25965
          ],
          [
            81.300514,
            21.259601
          ],
          [
            81.300566,
            21.259553
          ],
          [
            81.300619,
            21.259504
          ],
          [
            81.300619,
            21.259407
          ],
          [
            81.300671,
            21.259359
          ],
          [
            81.300775,
            21.259359
          ],
          [
            81.300827,
            21.259407
          ],
          [
            81.300827,
            21.259504
          ],
          [
            81.300827,
            21.259601
          ],
          [
            81.300775,
            21.25965
          ],
          [
            81.300723,
            21.259698
          ],
          [
            81.300671,
            21.259747
          ]
        ]
      ],
      [
        [
          [
            81.301712,
            21.258388
          ],
          [
            81.30166,
            21.258339
          ],
          [
            81.30166,
            21.258242
          ],
          [
            81.301608,
            21.258194
          ],
          [
            81.301556,
            21.258145
          ],
          [
            81.301556,
            21.258048
          ],
          [
            81.301556,
            21.257951
          ],
          [
            81.301608,
            21.257903
          ],
          [
            81.30166,
            21.257854
          ],
          [
            81.301712,
            21.257806
          ],
          [
            81.301816,
            21.257806
          ],
          [
            81.30192,
            21.257806
          ],
          [
            81.302024,
            21.257806
          ],
          [
            81.302077,
            21.257854
          ],
          [
            81.302129,
            21.257903
          ],
          [
            81.302181,
            21.257951
          ],
          [
            81.302233,
            21.258
          ],
          [
            81.302285,
            21.258048
          ],
          [
            81.302285,
            21.258145
          ],
          [
            81.302285,
            21.258242
          ],
          [
            81.302285,
            21.258339
          ],
          [
            81.302233,
            21.258388
          ],
          [
            81.302129,
            21.258388
          ],
          [
            81.302024,
            21.258388
          ],
          [
            81.30192,
            21.258388
          ],
          [
            81.301816,
            21.258388
          ],
          [
            81.301712,
            21.258388
          ]
        ]
      ],
      [
        [
          [
            81.300358,
            21.257514
          ],
          [
            81.300306,
            21.257466
          ],
          [
            81.300306,
            21.257369
          ],
          [
            81.300358,
            21.25732
          ],
          [
            81.30041,
            21.257272
          ],
          [
            81.30041,
            21.257175
          ],
          [
            81.300462,
            21.257126
          ],
          [
            81.300566,
            21.257126
          ],
          [
            81.300619,
            21.257175
          ],
          [
            81.300671,
            21.257223
          ],
          [
            81.300723,
            21.257272
          ],
          [
            81.300671,
            21.25732
          ],
          [
            81.300619,
            21.257369
          ],
          [
            81.300619,
            21.257466
          ],
          [
            81.300566,
            21.257514
          ],
          [
            81.300462,
            21.257514
          ],
          [
            81.300358,
            21.257514
          ]
        ]
      ]
    ]
  }
}